{"type": "FeatureCollection", "features": [ {"type": "Feature", "properties": {"norad_id": 41469, "name": "IRNSS-1G", "group": "gnss", "lat": -0.04149005057304011, "lon": -77.98829485855653, "alt_km": 35795.1694191679, "timestamp": "2025-12-26T03:50:12.336283+00:00", "meta": {"OBJECT_NAME": "IRNSS-1G", "OBJECT_ID": "2016-027A", "EPOCH": "2025-12-25T12:13:38.614080", "MEAN_MOTION": 1.00273695, "ECCENTRICITY": 0.0002698, "INCLINATION": 4.7659, "RA_OF_ASC_NODE": 101.7714, "ARG_OF_PERICENTER": 326.6249, "MEAN_ANOMALY": 338.8484, "EPHEMERIS_TYPE": 0, "CLASSIFICATION_TYPE": "U", "NORAD_CAT_ID": 41469, "ELEMENT_SET_NO": 999, "REV_AT_EPOCH": 3543, "BSTAR": 0, "MEAN_MOTION_DOT": -3.14e-06, "MEAN_MOTION_DDOT": 0}, "tle": {"line1": "1 41469U 16027A   25359.50947470 -.00000314  00000+0  00000+0 0  9997", "line2": "2 41469   4.7659 101.7714 0002698 326.6249 338.8484  1.00273695 35431"}}, "geometry": {"type": "Point", "coordinates": [-77.98829485855653, -0.04149005057304011]}}, {"type": "Feature", "properties": {"norad_id": 41549, "name": "GSAT0211 (GALILEO 14)", "group": "gnss", "lat": -49.96716843857067, "lon": 102.48712096551667, "alt_km": 23235.036934156433, "timestamp": "2025-12-26T03:50:12.336294+00:00", "meta": {"OBJECT_NAME": "GSAT0211 (GALILEO 14)", "OBJECT_ID": "2016-030A", "EPOCH": "2025-12-23T23:52:07.352256", "MEAN_MOTION": 1.70473256, "ECCENTRICITY": 0.0004011, "INCLINATION": 55.1486, "RA_OF_ASC_NODE": 226.5135, "ARG_OF_PERICENTER": 16.1635, "MEAN_ANOMALY": 343.9466, "EPHEMERIS_TYPE": 0, "CLASSIFICATION_TYPE": "U", "NORAD_CAT_ID": 41549, "ELEMENT_SET_NO": 999, "REV_AT_EPOCH": 5968, "BSTAR": 0, "MEAN_MOTION_DOT": 7.2e-07, "MEAN_MOTION_DDOT": 0}, "tle": {"line1": "1 41549U 16030A   25357.99452954  .00000072  00000+0  00000+0 0  9999", "line2": "2 41549  55.1486 226.5135 0004011  16.1635 343.9466  1.70473256 59684"}}, "geometry": {"type": "Point", "coordinates": [102.48712096551667, -49.96716843857067]}}, {"type": "Feature", "properties": {"norad_id": 41550, "name": "GSAT0210 (GALILEO 13)", "group": "gnss", "lat": 55.12618081575902, "lon": -41.846203024119234, "alt_km": 23215.71507721155, "timestamp": "2025-12-26T03:50:12.336305+00:00", "meta": {"OBJECT_NAME": "GSAT0210 (GALILEO 13)", "OBJECT_ID": "2016-030B", "EPOCH": "2025-12-24T20:07:27.603552", "MEAN_MOTION": 1.70473396, "ECCENTRICITY": 5.683e-05, "INCLINATION": 55.1478, "RA_OF_ASC_NODE": 226.4883, "ARG_OF_PERICENTER": 175.0994, "MEAN_ANOMALY": 184.9941, "EPHEMERIS_TYPE": 0, "CLASSIFICATION_TYPE": "U", "NORAD_CAT_ID": 41550, "ELEMENT_SET_NO": 999, "REV_AT_EPOCH": 5969, "BSTAR": 0, "MEAN_MOTION_DOT": 7.1e-07, "MEAN_MOTION_DDOT": 0}, "tle": {"line1": "1 41550U 16030B   25358.83851393  .00000071  00000+0  00000+0 0  9994", "line2": "2 41550  55.1478 226.4883 0000568 175.0994 184.9941  1.70473396 59699"}}, "geometry": {"type": "Point", "coordinates": [-41.846203024119234, 55.12618081575902]}}, {"type": "Feature", "properties": {"norad_id": 41586, "name": "BEIDOU-2 G7 (C03)", "group": "gnss", "lat": -0.4788398914585059, "lon": -97.15088681105246, "alt_km": 35808.441678675765, "timestamp": "2025-12-26T03:50:12.336317+00:00", "meta": {"OBJECT_NAME": "BEIDOU-2 G7 (C03)", "OBJECT_ID": "2016-037A", "EPOCH": "2025-12-25T18:43:39.643680", "MEAN_MOTION": 1.0026829, "ECCENTRICITY": 0.0005185, "INCLINATION": 1.7868, "RA_OF_ASC_NODE": 67.9032, "ARG_OF_PERICENTER": 0.6764, "MEAN_ANOMALY": 57.2909, "EPHEMERIS_TYPE": 0, "CLASSIFICATION_TYPE": "U", "NORAD_CAT_ID": 41586, "ELEMENT_SET_NO": 999, "REV_AT_EPOCH": 515, "BSTAR": 0, "MEAN_MOTION_DOT": -3.32e-06, "MEAN_MOTION_DDOT": 0}, "tle": {"line1": "1 41586U 16037A   25359.78031995 -.00000332  00000+0  00000+0 0  9994", "line2": "2 41586   1.7868  67.9032 0005185   0.6764  57.2909  1.00268290  5156"}}, "geometry": {"type": "Point", "coordinates": [-97.15088681105246, -0.4788398914585059]}}, {"type": "Feature", "properties": {"norad_id": 41589, "name": "EUTELSAT 117 WEST B (WAAS/PRN 131)", "group": "gnss", "lat": -0.002359915783262981, "lon": 35.486869797270806, "alt_km": 35784.862031575256, "timestamp": "2025-12-26T03:50:12.336342+00:00", "meta": {"OBJECT_NAME": "EUTELSAT 117 WEST B (WAAS/PRN 131)", "OBJECT_ID": "2016-038B", "EPOCH": "2025-12-24T09:59:01.014144", "MEAN_MOTION": 1.00277873, "ECCENTRICITY": 6.384e-05, "INCLINATION": 0.0094, "RA_OF_ASC_NODE": 154.0765, "ARG_OF_PERICENTER": 139.5473, "MEAN_ANOMALY": 192.3072, "EPHEMERIS_TYPE": 0, "CLASSIFICATION_TYPE": "U", "NORAD_CAT_ID": 41589, "ELEMENT_SET_NO": 999, "REV_AT_EPOCH": 3491, "BSTAR": 0, "MEAN_MOTION_DOT": 9e-08, "MEAN_MOTION_DDOT": 0}, "tle": {"line1": "1 41589U 16038B   25358.41598396  .00000009  00000+0  00000+0 0  9990", "line2": "2 41589   0.0094 154.0765 0000638 139.5473 192.3072  1.00277873 34915"}}, "geometry": {"type": "Point", "coordinates": [35.486869797270806, -0.002359915783262981]}}, {"type": "Feature", "properties": {"norad_id": 41859, "name": "GSAT0207 (GALILEO 15)", "group": "gnss", "lat": -54.12309286813165, "lon": 33.42766136580499, "alt_km": 23222.237077866397, "timestamp": "2025-12-26T03:50:12.336358+00:00", "meta": {"OBJECT_NAME": "GSAT0207 (GALILEO 15)", "OBJECT_ID": "2016-069A", "EPOCH": "2025-12-22T04:24:39.710016", "MEAN_MOTION": 1.70474442, "ECCENTRICITY": 0.00024396, "INCLINATION": 55.3874, "RA_OF_ASC_NODE": 105.9888, "ARG_OF_PERICENTER": 317.4324, "MEAN_ANOMALY": 42.5257, "EPHEMERIS_TYPE": 0, "CLASSIFICATION_TYPE": "U", "NORAD_CAT_ID": 41859, "ELEMENT_SET_NO": 999, "REV_AT_EPOCH": 5638, "BSTAR": 0, "MEAN_MOTION_DOT": 6e-08, "MEAN_MOTION_DDOT": 0}, "tle": {"line1": "1 41859U 16069A   25356.18379294  .00000006  00000+0  00000+0 0  9997", "line2": "2 41859  55.3874 105.9888 0002439 317.4324  42.5257  1.70474442 56382"}}, "geometry": {"type": "Point", "coordinates": [33.42766136580499, -54.12309286813165]}}, {"type": "Feature", "properties": {"norad_id": 41860, "name": "GSAT0212 (GALILEO 16)", "group": "gnss", "lat": 8.23627936426572, "lon": 111.60344312775715, "alt_km": 23215.30987023554, "timestamp": "2025-12-26T03:50:12.336372+00:00", "meta": {"OBJECT_NAME": "GSAT0212 (GALILEO 16)", "OBJECT_ID": "2016-069B", "EPOCH": "2025-12-23T19:07:58.296864", "MEAN_MOTION": 1.70474626, "ECCENTRICITY": 0.0002039, "INCLINATION": 55.3859, "RA_OF_ASC_NODE": 105.9395, "ARG_OF_PERICENTER": 17.7426, "MEAN_ANOMALY": 342.2518, "EPHEMERIS_TYPE": 0, "CLASSIFICATION_TYPE": "U", "NORAD_CAT_ID": 41860, "ELEMENT_SET_NO": 999, "REV_AT_EPOCH": 5666, "BSTAR": 0, "MEAN_MOTION_DOT": 1.3e-07, "MEAN_MOTION_DDOT": 0}, "tle": {"line1": "1 41860U 16069B   25357.79720251  .00000013  00000+0  00000+0 0  9998", "line2": "2 41860  55.3859 105.9395 0002039  17.7426 342.2518  1.70474626 56664"}}, "geometry": {"type": "Point", "coordinates": [111.60344312775715, 8.23627936426572]}}, {"type": "Feature", "properties": {"norad_id": 41861, "name": "GSAT0213 (GALILEO 17)", "group": "gnss", "lat": 28.603175722971134, "lon": -96.20642456793865, "alt_km": 23224.59857357184, "timestamp": "2025-12-26T03:50:12.336383+00:00", "meta": {"OBJECT_NAME": "GSAT0213 (GALILEO 17)", "OBJECT_ID": "2016-069C", "EPOCH": "2025-12-21T19:38:29.842080", "MEAN_MOTION": 1.70474953, "ECCENTRICITY": 0.00027355, "INCLINATION": 55.3872, "RA_OF_ASC_NODE": 106.002, "ARG_OF_PERICENTER": 282.3014, "MEAN_ANOMALY": 77.6427, "EPHEMERIS_TYPE": 0, "CLASSIFICATION_TYPE": "U", "NORAD_CAT_ID": 41861, "ELEMENT_SET_NO": 999, "REV_AT_EPOCH": 5649, "BSTAR": 0, "MEAN_MOTION_DOT": 4e-08, "MEAN_MOTION_DDOT": 0}, "tle": {"line1": "1 41861U 16069C   25355.81840095  .00000004  00000+0  00000+0 0  9999", "line2": "2 41861  55.3872 106.0020 0002735 282.3014  77.6427  1.70474953 56495"}}, "geometry": {"type": "Point", "coordinates": [-96.20642456793865, 28.603175722971134]}}, {"type": "Feature", "properties": {"norad_id": 41862, "name": "GSAT0214 (GALILEO 18)", "group": "gnss", "lat": 42.30348717198978, "lon": 144.749015779034, "alt_km": 23220.143386231808, "timestamp": "2025-12-26T03:50:12.336394+00:00", "meta": {"OBJECT_NAME": "GSAT0214 (GALILEO 18)", "OBJECT_ID": "2016-069D", "EPOCH": "2025-12-24T07:27:29.645856", "MEAN_MOTION": 1.70474781, "ECCENTRICITY": 0.00017476, "INCLINATION": 55.3867, "RA_OF_ASC_NODE": 105.9257, "ARG_OF_PERICENTER": 287.2715, "MEAN_ANOMALY": 72.6994, "EPHEMERIS_TYPE": 0, "CLASSIFICATION_TYPE": "U", "NORAD_CAT_ID": 41862, "ELEMENT_SET_NO": 999, "REV_AT_EPOCH": 5666, "BSTAR": 0, "MEAN_MOTION_DOT": 1.5e-07, "MEAN_MOTION_DDOT": 0}, "tle": {"line1": "1 41862U 16069D   25358.31075979  .00000015  00000+0  00000+0 0  9991", "line2": "2 41862  55.3867 105.9257 0001747 287.2715  72.6994  1.70474781 56666"}}, "geometry": {"type": "Point", "coordinates": [144.749015779034, 42.30348717198978]}}, {"type": "Feature", "properties": {"norad_id": 42709, "name": "SES-15 (WAAS/PRN 133)", "group": "gnss", "lat": 0.018578753580029347, "lon": 23.27130599151823, "alt_km": 35787.22350727876, "timestamp": "2025-12-26T03:50:12.336405+00:00", "meta": {"OBJECT_NAME": "SES-15 (WAAS/PRN 133)", "OBJECT_ID": "2017-026A", "EPOCH": "2025-12-24T22:45:23.082912", "MEAN_MOTION": 1.00266955, "ECCENTRICITY": 1.926e-05, "INCLINATION": 0.0189, "RA_OF_ASC_NODE": 339.9937, "ARG_OF_PERICENTER": 321.3505, "MEAN_ANOMALY": 4.5524, "EPHEMERIS_TYPE": 0, "CLASSIFICATION_TYPE": "U", "NORAD_CAT_ID": 42709, "ELEMENT_SET_NO": 999, "REV_AT_EPOCH": 568, "BSTAR": 0, "MEAN_MOTION_DOT": 8.1e-07, "MEAN_MOTION_DDOT": 0}, "tle": {"line1": "1 42709U 17026A   25358.94818383  .00000081  00000+0  00000+0 0  9992", "line2": "2 42709   0.0189 339.9937 0000192 321.3505   4.5524  1.00266955  5689"}}, "geometry": {"type": "Point", "coordinates": [23.27130599151823, 0.018578753580029347]}}]}